STARLINK-2022           
1 47643U 21012Z   24214.57268881  .00002215  00000+0  16752-3 0  9991
2 47643  53.0530 158.3092 0001346  91.1707 268.9436 15.06405484192073
